ONEWEB-0092             
1 45437U 20020P   26062.50026043 -.00000508  00000+0 -14682-2 0  9990
2 45437  87.8854  42.0778 0001897  73.7816 286.3521 13.11416365288938
ONEWEB-0085             
1 45438U 20020Q   26062.84190441  .00000437  00000+0  11975-2 0  9993
2 45438  87.8852  42.0140 0001845  81.8062 278.3275 13.11417064288862
ONEWEB-0096             
1 45439U 20020R   26062.84360059  .00000460  00000+0  12627-2 0  9999
2 45439  87.8860  42.0016 0001786  82.4407 277.6924 13.11416658288858
ONEWEB-0037             
1 45440U 20020S   26062.44261198 -.00000209  00000+0 -62690-3 0  9990
2 45440  87.8866  42.0570 0001896  81.3820 278.7523 13.11417859288839
ONEWEB-0042             
1 45441U 20020T   26062.45179730  .00000211  00000+0  55990-3 0  9998
2 45441  87.8857  42.0772 0001750  81.9454 278.1873 13.11417795288800
ONEWEB-0098             
1 45442U 20020U   26062.44769763  .00000033  00000+0  56822-4 0  9997
2 45442  87.8855  42.0895 0001900  85.8233 274.3112 13.11417528288785
ONEWEB-0055             
1 45443U 20020V   26062.43074345 -.00000509  00000+0 -14720-2 0  9991
2 45443  87.8855  42.0933 0001899  86.4466 273.6879 13.11417004288759
ONEWEB-0093             
1 45444U 20020W   26062.94037883  .00000194  00000+0  51134-3 0  9993
2 45444  87.8859  41.9812 0001432  78.9823 281.1466 13.11413593288883
ONEWEB-0029             
1 45445U 20020X   26062.42226263 -.00000463  00000+0 -13429-2 0  9994
2 45445  87.8854  42.0959 0001689  86.0467 274.0854 13.11415249288793
ONEWEB-0068             
1 45446U 20020Y   26062.94010123  .00000215  00000+0  57087-3 0  9990
2 45446  87.8861  41.9835 0001649  86.2568 273.8748 13.11414115288805
ONEWEB-0046             
1 45447U 20020Z   26062.47398093  .00000434  00000+0  11895-2 0  9993
2 45447  87.8859  42.0831 0001725  77.2311 282.9009 13.11414405288759
ONEWEB-0063             
1 45448U 20020AA  26062.42649617 -.00000499  00000+0 -14431-2 0  9992
2 45448  87.8859  42.0901 0001867  77.0316 283.1021 13.11416001288838
ONEWEB-0019             
1 45449U 20020AB  26062.92314594  .00000544  00000+0  14996-2 0  9996
2 45449  87.8848  41.9858 0001976  87.6869 272.4485 13.11415870288745
ONEWEB-0094             
1 45450U 20020AC  26062.80351622  .00000057  00000+0  11280-3 0  9991
2 45450  87.9149  26.7659 0001750  87.3291 272.8040 13.17652337292437
ONEWEB-0087             
1 45451U 20020AD  26062.43653180 -.00000374  00000+0 -10925-2 0  9993
2 45451  87.8864  42.0545 0001573  87.6583 272.4726 13.11416941288723
ONEWEB-0082             
1 45452U 20020AE  26062.43327701 -.00000435  00000+0 -12622-2 0  9995
2 45452  87.8862  42.0794 0001636  88.3641 271.7675 13.11417028288813
ONEWEB-0050             
1 45453U 20020AF  26062.91526824  .00002841  00000+0  29282-3 0  9998
2 45453  88.9193 247.5456 0003909  33.1913 326.9561 14.89977303324704
